LUR-1                   
1 60506U 24149AQ  26068.79566301  .00009121  00000+0  32985-3 0  9998
2 60506  97.3790 148.4255 0002777 309.1571  50.9421 15.28658648 86785
STARLINK-33611          
1 63279U 25053Q   26067.50043365  .00039698  00000+0  14420-2 0  9996
2 63279  42.9988 244.8488 0001540 262.4035  97.6642 15.27634247 56162
